{
  "type": "FeatureCollection",
  "features": [
    {
      "type": "Feature",
      "properties": {
        "norad_id": 33886,
        "name": "IRIDIUM 33 DEB",
        "group": "iridium-33-debris",
        "lat": 62.61142015118827,
        "lon": 77.8189215064723,
        "alt_km": 772.9501113912838,
        "timestamp": "2025-12-04T05:42:43.757016+00:00",
        "meta_object_name": "IRIDIUM 33 DEB",
        "meta_object_id": "1997-051BF",
        "meta_epoch": "2025-12-03T18:15:52.922016",
        "meta_mean_motion": 14.36033688,
        "meta_eccentricity": 0.00120654,
        "meta_inclination": 86.3832,
        "meta_ra_of_asc_node": 71.0074,
        "meta_arg_of_pericenter": 276.1979,
        "meta_mean_anomaly": 202.3327,
        "meta_ephemeris_type": 0,
        "meta_classification_type": "U",
        "meta_norad_cat_id": 33886,
        "meta_element_set_no": 999,
        "meta_rev_at_epoch": 87923,
        "meta_bstar": 0.00032171067,
        "meta_mean_motion_dot": 9.55e-06,
        "meta_mean_motion_ddot": 0,
        "tle_line1": "1 33886U 97051BF  25337.76102919  .00000955  00000+0  32171-3 0  9990",
        "tle_line2": "2 33886  86.3832  71.0074 0012065 276.1979 202.3327 14.36033688879234"
      },
      "geometry": {
        "type": "Point",
        "coordinates": [
          77.8189215064723,
          62.61142015118827
        ]
      }
    },
    {
      "type": "Feature",
      "properties": {
        "norad_id": 33887,
        "name": "IRIDIUM 33 DEB",
        "group": "iridium-33-debris",
        "lat": -36.72731104682473,
        "lon": 4.292537812974539,
        "alt_km": 772.5041567611206,
        "timestamp": "2025-12-04T05:42:43.757026+00:00",
        "meta_object_name": "IRIDIUM 33 DEB",
        "meta_object_id": "1997-051BG",
        "meta_epoch": "2025-12-03T13:45:17.631072",
        "meta_mean_motion": 14.37207782,
        "meta_eccentricity": 0.00040353,
        "meta_inclination": 86.3051,
        "meta_ra_of_asc_node": 7.3424,
        "meta_arg_of_pericenter": 270.6058,
        "meta_mean_anomaly": 214.7345,
        "meta_ephemeris_type": 0,
        "meta_classification_type": "U",
        "meta_norad_cat_id": 33887,
        "meta_element_set_no": 999,
        "meta_rev_at_epoch": 88033,
        "meta_bstar": 0.00021498775,
        "meta_mean_motion_dot": 6.59e-06,
        "meta_mean_motion_ddot": 0,
        "tle_line1": "1 33887U 97051BG  25337.57312073  .00000659  00000+0  21499-3 0  9996",
        "tle_line2": "2 33887  86.3051   7.3424 0004035 270.6058 214.7345 14.37207782880333"
      },
      "geometry": {
        "type": "Point",
        "coordinates": [
          4.292537812974539,
          -36.72731104682473
        ]
      }
    },
    {
      "type": "Feature",
      "properties": {
        "norad_id": 33953,
        "name": "IRIDIUM 33 DEB",
        "group": "iridium-33-debris",
        "lat": -12.858300416353508,
        "lon": 56.64196369513883,
        "alt_km": 723.5869932625201,
        "timestamp": "2025-12-04T05:42:43.757037+00:00",
        "meta_object_name": "IRIDIUM 33 DEB",
        "meta_object_id": "1997-051BN",
        "meta_epoch": "2025-12-03T05:09:00.715968",
        "meta_mean_motion": 14.55157442,
        "meta_eccentricity": 0.0018449,
        "meta_inclination": 86.3853,
        "meta_ra_of_asc_node": 57.9126,
        "meta_arg_of_pericenter": 131.9522,
        "meta_mean_anomaly": 257.615,
        "meta_ephemeris_type": 0,
        "meta_classification_type": "U",
        "meta_norad_cat_id": 33953,
        "meta_element_set_no": 999,
        "meta_rev_at_epoch": 88165,
        "meta_bstar": 0.0017324,
        "meta_mean_motion_dot": 7.523e-05,
        "meta_mean_motion_ddot": 0,
        "tle_line1": "1 33953U 97051BN  25337.21459162  .00007523  00000+0  17324-2 0  9990",
        "tle_line2": "2 33953  86.3853  57.9126 0018449 131.9522 257.6150 14.55157442881659"
      },
      "geometry": {
        "type": "Point",
        "coordinates": [
          56.64196369513883,
          -12.858300416353508
        ]
      }
    },
    {
      "type": "Feature",
      "properties": {
        "norad_id": 33960,
        "name": "IRIDIUM 33 DEB",
        "group": "iridium-33-debris",
        "lat": -32.61860195301548,
        "lon": -68.88384119659425,
        "alt_km": 622.8246530932165,
        "timestamp": "2025-12-04T05:42:43.757047+00:00",
        "meta_object_name": "IRIDIUM 33 DEB",
        "meta_object_id": "1997-051BV",
        "meta_epoch": "2025-12-03T22:02:56.046336",
        "meta_mean_motion": 14.84433668,
        "meta_eccentricity": 0.00070383,
        "meta_inclination": 86.253,
        "meta_ra_of_asc_node": 293.6703,
        "meta_arg_of_pericenter": 74.2098,
        "meta_mean_anomaly": 348.0492,
        "meta_ephemeris_type": 0,
        "meta_classification_type": "U",
        "meta_norad_cat_id": 33960,
        "meta_element_set_no": 999,
        "meta_rev_at_epoch": 88736,
        "meta_bstar": 0.0061170457,
        "meta_mean_motion_dot": 0.00051818,
        "meta_mean_motion_ddot": 0,
        "tle_line1": "1 33960U 97051BV  25337.91870424  .00051818  00000+0  61170-2 0  9997",
        "tle_line2": "2 33960  86.2530 293.6703 0007038  74.2098 348.0492 14.84433668887364"
      },
      "geometry": {
        "type": "Point",
        "coordinates": [
          -68.88384119659425,
          -32.61860195301548
        ]
      }
    },
    {
      "type": "Feature",
      "properties": {
        "norad_id": 33966,
        "name": "IRIDIUM 33 DEB",
        "group": "iridium-33-debris",
        "lat": -72.26571470046736,
        "lon": 38.300072596046384,
        "alt_km": 732.8862990785274,
        "timestamp": "2025-12-04T05:42:43.757058+00:00",
        "meta_object_name": "IRIDIUM 33 DEB",
        "meta_object_id": "1997-051CB",
        "meta_epoch": "2025-12-03T17:20:32.441280",
        "meta_mean_motion": 14.49530471,
        "meta_eccentricity": 0.00064145,
        "meta_inclination": 86.3932,
        "meta_ra_of_asc_node": 49.8963,
        "meta_arg_of_pericenter": 220.7133,
        "meta_mean_anomaly": 258.7908,
        "meta_ephemeris_type": 0,
        "meta_classification_type": "U",
        "meta_norad_cat_id": 33966,
        "meta_element_set_no": 999,
        "meta_rev_at_epoch": 88311,
        "meta_bstar": 0.00091882532,
        "meta_mean_motion_dot": 3.542e-05,
        "meta_mean_motion_ddot": 0,
        "tle_line1": "1 33966U 97051CB  25337.72259770  .00003542  00000+0  91883-3 0  9993",
        "tle_line2": "2 33966  86.3932  49.8963 0006414 220.7133 258.7908 14.49530471883110"
      },
      "geometry": {
        "type": "Point",
        "coordinates": [
          38.300072596046384,
          -72.26571470046736
        ]
      }
    },
    {
      "type": "Feature",
      "properties": {
        "norad_id": 34071,
        "name": "IRIDIUM 33 DEB",
        "group": "iridium-33-debris",
        "lat": -2.475531358978076,
        "lon": 21.365501804684794,
        "alt_km": 735.5506837023904,
        "timestamp": "2025-12-04T05:42:43.757067+00:00",
        "meta_object_name": "IRIDIUM 33 DEB",
        "meta_object_id": "1997-051CE",
        "meta_epoch": "2025-12-03T14:48:40.660128",
        "meta_mean_motion": 14.49397126,
        "meta_eccentricity": 0.00094837,
        "meta_inclination": 86.3467,
        "meta_ra_of_asc_node": 21.7934,
        "meta_arg_of_pericenter": 132.2997,
        "meta_mean_anomaly": 227.9013,
        "meta_ephemeris_type": 0,
        "meta_classification_type": "U",
        "meta_norad_cat_id": 34071,
        "meta_element_set_no": 999,
        "meta_rev_at_epoch": 88202,
        "meta_bstar": 0.0009210058,
        "meta_mean_motion_dot": 3.542e-05,
        "meta_mean_motion_ddot": 0,
        "tle_line1": "1 34071U 97051CE  25337.61713727  .00003542  00000+0  92101-3 0  9990",
        "tle_line2": "2 34071  86.3467  21.7934 0009483 132.2997 227.9013 14.49397126882024"
      },
      "geometry": {
        "type": "Point",
        "coordinates": [
          21.365501804684794,
          -2.475531358978076
        ]
      }
    },
    {
      "type": "Feature",
      "properties": {
        "norad_id": 34077,
        "name": "IRIDIUM 33 DEB",
        "group": "iridium-33-debris",
        "lat": 85.58697862040653,
        "lon": -179.696343170403,
        "alt_km": 663.9714635525679,
        "timestamp": "2025-12-04T05:42:43.757078+00:00",
        "meta_object_name": "IRIDIUM 33 DEB",
        "meta_object_id": "1997-051CL",
        "meta_epoch": "2025-12-03T18:22:49.192896",
        "meta_mean_motion": 14.64588497,
        "meta_eccentricity": 0.00109402,
        "meta_inclination": 86.3874,
        "meta_ra_of_asc_node": 55.4594,
        "meta_arg_of_pericenter": 67.7769,
        "meta_mean_anomaly": 56.8334,
        "meta_ephemeris_type": 0,
        "meta_classification_type": "U",
        "meta_norad_cat_id": 34077,
        "meta_element_set_no": 999,
        "meta_rev_at_epoch": 88201,
        "meta_bstar": 0.0026047807,
        "meta_mean_motion_dot": 0.00013874,
        "meta_mean_motion_ddot": 0,
        "tle_line1": "1 34077U 97051CL  25337.76584714  .00013874  00000+0  26048-2 0  9999",
        "tle_line2": "2 34077  86.3874  55.4594 0010940  67.7769  56.8334 14.64588497882011"
      },
      "geometry": {
        "type": "Point",
        "coordinates": [
          -179.696343170403,
          85.58697862040653
        ]
      }
    }
  ]
}